{
  "type": "FeatureCollection",
  "features": [
    {
      "type": "Feature",
      "properties": {
        "norad_id": 28054,
        "name": "DMSP 5D-3 F16 (USA 172)",
        "group": "weather",
        "lat": -28.409117167334674,
        "lon": 170.9236586837898,
        "alt_km": 853.7133590541043,
        "timestamp": "2025-12-04T10:51:49.749156+00:00",
        "meta_object_name": "DMSP 5D-3 F16 (USA 172)",
        "meta_object_id": "2003-048A",
        "meta_epoch": "2025-12-03T22:18:37.497888",
        "meta_mean_motion": 14.14419405,
        "meta_eccentricity": 0.00068672,
        "meta_inclination": 99.0052,
        "meta_ra_of_asc_node": 355.3171,
        "meta_arg_of_pericenter": 347.7086,
        "meta_mean_anomaly": 79.1467,
        "meta_ephemeris_type": 0,
        "meta_classification_type": "U",
        "meta_norad_cat_id": 28054,
        "meta_element_set_no": 999,
        "meta_rev_at_epoch": 14188,
        "meta_bstar": 0.00016796968,
        "meta_mean_motion_dot": 2.76e-06,
        "meta_mean_motion_ddot": 0,
        "tle_line1": "1 28054U 03048A   25337.92960067  .00000276  00000+0  16797-3 0  9990",
        "tle_line2": "2 28054  99.0052 355.3171 0006867 347.7086  79.1467 14.14419405141882"
      },
      "geometry": {
        "type": "Point",
        "coordinates": [
          170.9236586837898,
          -28.409117167334674
        ]
      }
    },
    {
      "type": "Feature",
      "properties": {
        "norad_id": 28912,
        "name": "METEOSAT-9 (MSG-2)",
        "group": "weather",
        "lat": -6.4301351344258855,
        "lon": -78.24296537231365,
        "alt_km": 35774.048004463744,
        "timestamp": "2025-12-04T10:51:49.749204+00:00",
        "meta_object_name": "METEOSAT-9 (MSG-2)",
        "meta_object_id": "2005-049B",
        "meta_epoch": "2025-12-02T20:50:55.807872",
        "meta_mean_motion": 1.00271253,
        "meta_eccentricity": 0.00040042,
        "meta_inclination": 8.9157,
        "meta_ra_of_asc_node": 56.0648,
        "meta_arg_of_pericenter": 185.08,
        "meta_mean_anomaly": 189.154,
        "meta_ephemeris_type": 0,
        "meta_classification_type": "U",
        "meta_norad_cat_id": 28912,
        "meta_element_set_no": 999,
        "meta_rev_at_epoch": 503,
        "meta_bstar": 0,
        "meta_mean_motion_dot": 1.39e-06,
        "meta_mean_motion_ddot": 0,
        "tle_line1": "1 28912U 05049B   25336.86870148  .00000139  00000+0  00000+0 0  9992",
        "tle_line2": "2 28912   8.9157  56.0648 0004004 185.0800 189.1540  1.00271253  5030"
      },
      "geometry": {
        "type": "Point",
        "coordinates": [
          -78.24296537231365,
          -6.4301351344258855
        ]
      }
    },
    {
      "type": "Feature",
      "properties": {
        "norad_id": 29522,
        "name": "DMSP 5D-3 F17 (USA 191)",
        "group": "weather",
        "lat": 44.78090595918932,
        "lon": 172.79483774253217,
        "alt_km": 841.6796435679271,
        "timestamp": "2025-12-04T10:51:49.749222+00:00",
        "meta_object_name": "DMSP 5D-3 F17 (USA 191)",
        "meta_object_id": "2006-050A",
        "meta_epoch": "2025-12-03T22:20:57.653376",
        "meta_mean_motion": 14.14913792,
        "meta_eccentricity": 0.00091686,
        "meta_inclination": 98.7394,
        "meta_ra_of_asc_node": 343.5037,
        "meta_arg_of_pericenter": 252.4546,
        "meta_mean_anomaly": 107.5626,
        "meta_ephemeris_type": 0,
        "meta_classification_type": "U",
        "meta_norad_cat_id": 29522,
        "meta_element_set_no": 999,
        "meta_rev_at_epoch": 98480,
        "meta_bstar": 0.00020634785,
        "meta_mean_motion_dot": 3.55e-06,
        "meta_mean_motion_ddot": 0,
        "tle_line1": "1 29522U 06050A   25337.93122284  .00000355  00000+0  20635-3 0  9993",
        "tle_line2": "2 29522  98.7394 343.5037 0009168 252.4546 107.5626 14.14913792984806"
      },
      "geometry": {
        "type": "Point",
        "coordinates": [
          172.79483774253217,
          44.78090595918932
        ]
      }
    },
    {
      "type": "Feature",
      "properties": {
        "norad_id": 32958,
        "name": "FENGYUN 3A",
        "group": "weather",
        "lat": 69.86976472273457,
        "lon": -106.4396700589773,
        "alt_km": 820.7991706446664,
        "timestamp": "2025-12-04T10:51:49.749236+00:00",
        "meta_object_name": "FENGYUN 3A",
        "meta_object_id": "2008-026A",
        "meta_epoch": "2025-12-03T17:36:37.752192",
        "meta_mean_motion": 14.19509764,
        "meta_eccentricity": 0.00083403,
        "meta_inclination": 98.6682,
        "meta_ra_of_asc_node": 277.4507,
        "meta_arg_of_pericenter": 338.2034,
        "meta_mean_anomaly": 21.8787,
        "meta_ephemeris_type": 0,
        "meta_classification_type": "U",
        "meta_norad_cat_id": 32958,
        "meta_element_set_no": 999,
        "meta_rev_at_epoch": 90767,
        "meta_bstar": 0.0001067732,
        "meta_mean_motion_dot": 1.82e-06,
        "meta_mean_motion_ddot": 0,
        "tle_line1": "1 32958U 08026A   25337.73377028  .00000182  00000+0  10677-3 0  9994",
        "tle_line2": "2 32958  98.6682 277.4507 0008340 338.2034  21.8787 14.19509764907676"
      },
      "geometry": {
        "type": "Point",
        "coordinates": [
          -106.4396700589773,
          69.86976472273457
        ]
      }
    },
    {
      "type": "Feature",
      "properties": {
        "norad_id": 35491,
        "name": "GOES 14",
        "group": "weather",
        "lat": 0.8037024593385973,
        "lon": 128.07936583592445,
        "alt_km": 35791.39577040785,
        "timestamp": "2025-12-04T10:51:49.749251+00:00",
        "meta_object_name": "GOES 14",
        "meta_object_id": "2009-033A",
        "meta_epoch": "2025-12-04T01:13:34.696128",
        "meta_mean_motion": 1.00272678,
        "meta_eccentricity": 0.0004191,
        "meta_inclination": 1.175,
        "meta_ra_of_asc_node": 85.5088,
        "meta_arg_of_pericenter": 151.0612,
        "meta_mean_anomaly": 106.6209,
        "meta_ephemeris_type": 0,
        "meta_classification_type": "U",
        "meta_norad_cat_id": 35491,
        "meta_element_set_no": 999,
        "meta_rev_at_epoch": 463,
        "meta_bstar": 0,
        "meta_mean_motion_dot": -5.2e-07,
        "meta_mean_motion_ddot": 0,
        "tle_line1": "1 35491U 09033A   25338.05109602 -.00000052  00000+0  00000+0 0  9997",
        "tle_line2": "2 35491   1.1750  85.5088 0004191 151.0612 106.6209  1.00272678  4633"
      },
      "geometry": {
        "type": "Point",
        "coordinates": [
          128.07936583592445,
          0.8037024593385973
        ]
      }
    },
    {
      "type": "Feature",
      "properties": {
        "norad_id": 35951,
        "name": "DMSP 5D-3 F18 (USA 210)",
        "group": "weather",
        "lat": 6.049833351066386,
        "lon": -46.054336441796345,
        "alt_km": 843.3708122612479,
        "timestamp": "2025-12-04T10:51:49.749284+00:00",
        "meta_object_name": "DMSP 5D-3 F18 (USA 210)",
        "meta_object_id": "2009-057A",
        "meta_epoch": "2025-12-04T04:02:44.111040",
        "meta_mean_motion": 14.14761698,
        "meta_eccentricity": 0.0012118,
        "meta_inclination": 98.8824,
        "meta_ra_of_asc_node": 314.6127,
        "meta_arg_of_pericenter": 85.041,
        "meta_mean_anomaly": 275.2146,
        "meta_ephemeris_type": 0,
        "meta_classification_type": "U",
        "meta_norad_cat_id": 35951,
        "meta_element_set_no": 999,
        "meta_rev_at_epoch": 83201,
        "meta_bstar": 0.00026693,
        "meta_mean_motion_dot": 4.7e-06,
        "meta_mean_motion_ddot": 0,
        "tle_line1": "1 35951U 09057A   25338.16856610  .00000470  00000+0  26693-3 0  9997",
        "tle_line2": "2 35951  98.8824 314.6127 0012118  85.0410 275.2146 14.14761698832017"
      },
      "geometry": {
        "type": "Point",
        "coordinates": [
          -46.054336441796345,
          6.049833351066386
        ]
      }
    },
    {
      "type": "Feature",
      "properties": {
        "norad_id": 36411,
        "name": "EWS-G2 (GOES 15)",
        "group": "weather",
        "lat": -0.43105893174258736,
        "lon": -62.00538608627267,
        "alt_km": 35768.28683650544,
        "timestamp": "2025-12-04T10:51:49.749298+00:00",
        "meta_object_name": "EWS-G2 (GOES 15)",
        "meta_object_id": "2010-008A",
        "meta_epoch": "2025-12-04T02:02:00.056832",
        "meta_mean_motion": 1.00267832,
        "meta_eccentricity": 0.0005992,
        "meta_inclination": 0.7908,
        "meta_ra_of_asc_node": 86.0514,
        "meta_arg_of_pericenter": 170.1785,
        "meta_mean_anomaly": 268.9265,
        "meta_ephemeris_type": 0,
        "meta_classification_type": "U",
        "meta_norad_cat_id": 36411,
        "meta_element_set_no": 999,
        "meta_rev_at_epoch": 5768,
        "meta_bstar": 0,
        "meta_mean_motion_dot": 5.4e-07,
        "meta_mean_motion_ddot": 0,
        "tle_line1": "1 36411U 10008A   25338.08472288  .00000054  00000+0  00000+0 0  9991",
        "tle_line2": "2 36411   0.7908  86.0514 0005992 170.1785 268.9265  1.00267832 57682"
      },
      "geometry": {
        "type": "Point",
        "coordinates": [
          -62.00538608627267,
          -0.43105893174258736
        ]
      }
    }
  ]
}